NORAD_CAT_ID,OBJECT_NAME,OBJECT_TYPE,EPOCH,MEAN_MOTION,ECCENTRICITY,INCLINATION,RA_OF_ASC_NODE,ARG_OF_PERICENTER,MEAN_ANOMALY,BSTAR,MEAN_MOTION_DOT,MEAN_MOTION_DDOT,TLE_LINE0,TLE_LINE1,TLE_LINE2,SEMIMAJOR_AXIS,PERIOD,APOGEE,PERIGEE,DECAYED
52346.0,STARLINK-3812,PAYLOAD,2022-05-16 06:00:02,15.73204554,0.0001243,53.215,355.2817,92.7388,73.9043,-0.00057396,-0.0008042,0.0,0 STARLINK-3812,1 52346U 22045R   22136.25002315 -.00080420  00000-0 -57396-3 0  9994,2 52346  53.2150 355.2817 0001243  92.7388  73.9043 15.73204554  5126,6727.882,91.533,350.583,348.911,0.0
52346.0,STARLINK-3812,PAYLOAD,2022-05-16 14:00:01,15.73117156,0.0001415,53.2148,353.6315,97.9751,157.4716,0.00060222,0.0008445,0.0,0 STARLINK-3812,1 52346U 22045R   22136.58334491  .00084450  00000-0  60222-3 0  9990,2 52346  53.2148 353.6315 0001415  97.9751 157.4716 15.73117156  1302,6728.130999999999,91.538,350.9480000000001,349.0440000000001,0.0
52346.0,STARLINK-3812,PAYLOAD,2022-05-16 20:00:01,15.73183012,0.000135,53.2145,352.396,89.5838,142.5273,0.00038505,0.00053726,0.0,0 STARLINK-3812,1 52346U 22045R   22136.83334491  .00053726  00000-0  38505-3 0  9999,2 52346  53.2145 352.3960 0001350  89.5838 142.5273 15.73183012  5213,6727.944,91.534,350.717,348.9,0.0
52346.0,STARLINK-3812,PAYLOAD,2022-05-16 22:00:00,15.7318615,0.0001361,53.2145,351.9840000000001,87.6105,256.7298,0.00051044,0.00071587,0.0,0 STARLINK-3812,1 52346U 22045R   22136.91667824  .00071587  00000-0  51044-3 0  9995,2 52346  53.2145 351.9840 0001361  87.6105 256.7298 15.73186150  1300,6727.935,91.534,350.715,348.884,0.0
52346.0,STARLINK-3812,PAYLOAD,2022-05-17 12:00:00,15.73222798,0.000111,53.214,349.0948,101.5748,308.4445,-0.00011282,-0.00016437,0.0,0 STARLINK-3812,1 52346U 22045R   22137.50001157 -.00016437  00000-0 -11282-3 0  9997,2 52346  53.2140 349.0948 0001110 101.5748 308.4445 15.73222798  5327,6727.83,91.532,350.44199999999995,348.9480000000001,0.0
52346.0,STARLINK-3812,PAYLOAD,2022-05-17 14:00:01,15.73237202,0.0001144,53.2142,348.6825,102.7795,59.5373,-0.00033541,-0.00047501,0.0,0 STARLINK-3812,1 52346U 22045R   22137.58335648 -.00047501  00000-0 -33541-3 0  9998,2 52346  53.2142 348.6825 0001144 102.7795  59.5373 15.73237202  1304,6727.7890000000025,91.531,350.4240000000001,348.884,0.0
52346.0,STARLINK-3812,PAYLOAD,2022-05-17 22:00:01,15.73199907,0.0001047,53.2142,347.035,88.1651,163.1207,-0.00028302,-0.00040149,0.0,0 STARLINK-3812,1 52346U 22045R   22137.91668981 -.00040149  00000-0 -28302-3 0  9994,2 52346  53.2142 347.0350 0001047  88.1651 163.1207 15.73199907  1307,6727.895,91.533,350.465,349.056,0.0
52346.0,STARLINK-3812,PAYLOAD,2022-05-18 12:00:00,15.73222611,9.42e-05,53.2145,344.1456,99.2974,217.5496,-9.9177e-05,-0.00014527,0.0,0 STARLINK-3812,1 52346U 22045R   22138.50001157 -.00014527  00000-0 -99177-4 0  9996,2 52346  53.2145 344.1456 0000942  99.2974 217.5496 15.73222611  5474,6727.831,91.532,350.329,349.06199999999984,0.0
52346.0,STARLINK-3812,PAYLOAD,2022-05-18 14:00:01,15.73230568,0.0001004,53.2148,343.7334,98.5447,330.5379,-0.00026229,-0.00037314,0.0,0 STARLINK-3812,1 52346U 22045R   22138.58334491 -.00037314  00000-0 -26229-3 0  9990,2 52346  53.2148 343.7334 0001004  98.5447 330.5379 15.73230568  1308,6727.808000000001,91.531,350.348,348.99800000000016,0.0
52346.0,STARLINK-3812,PAYLOAD,2022-05-18 22:00:00,15.73193954,9.82e-05,53.2146,342.0858,80.6758,77.3665,-0.00041434,-0.0005835,0.0,0 STARLINK-3812,1 52346U 22045R   22138.91667824 -.00058350  00000-0 -41434-3 0  9994,2 52346  53.2146 342.0858 0000982  80.6758  77.3665 15.73193954  1301,6727.9119999999975,91.534,350.43800000000016,349.117,0.0
52346.0,STARLINK-3812,PAYLOAD,2022-05-19 06:00:00,15.73149643,9.64e-05,53.2141,340.4349,88.2015,158.7402,0.00027733,0.00038395,0.0,0 STARLINK-3812,1 52346U 22045R   22139.25001157  .00038395  00000-0  27733-3 0  9994,2 52346  53.2141 340.4349 0000964  88.2015 158.7402 15.73149643  5597,6728.0390000000025,91.536,350.552,349.255,0.0
52346.0,STARLINK-3812,PAYLOAD,2022-05-19 14:00:01,15.73199111,0.0001102,53.2144,338.7847,97.3445,238.5334,-0.00031576,-0.00044697,0.0,0 STARLINK-3812,1 52346U 22045R   22139.58335648 -.00044697  00000-0 -31576-3 0  9999,2 52346  53.2144 338.7847 0001102  97.3445 238.5334 15.73199111  1307,6727.898,91.533,350.504,349.021,0.0
52346.0,STARLINK-3812,PAYLOAD,2022-05-19 22:00:00,15.73162393,0.000118,53.2145,337.1373,83.7552,340.9974,0.00075133,0.00105992,0.0,0 STARLINK-3812,1 52346U 22045R   22139.91667824  .00105992  00000-0  75133-3 0  9991,2 52346  53.2145 337.1373 0001180  83.7552 340.9974 15.73162393  1309,6728.002,91.535,350.661,349.0730000000001,0.0
52346.0,STARLINK-3812,PAYLOAD,2022-05-20 14:00:01,15.73235768,0.0001154,53.215,333.8359,92.1328,150.51,-0.00026757,-0.00038059,0.0,0 STARLINK-3812,1 52346U 22045R   22140.58334491 -.00038059  00000-0 -26757-3 0  9996,2 52346  53.2150 333.8359 0001154  92.1328 150.5100 15.73235768  5800,6727.793000000002,91.531,350.435,348.88199999999995,0.0
52346.0,STARLINK-3812,PAYLOAD,2022-05-20 22:00:00,15.7320709,9.68e-05,53.2149,332.1884,73.1465,258.4638,4.9022e-05,6.268e-05,0.0,0 STARLINK-3812,1 52346U 22045R   22140.91667824  .00006268  00000-0  49022-4 0  9998,2 52346  53.2149 332.1884 0000968  73.1465 258.4638 15.73207090  1308,6727.875,91.533,350.391,349.089,0.0
52346.0,STARLINK-3812,PAYLOAD,2022-05-21 06:00:00,15.73245818,8.109999999999999e-05,53.2145,330.5372,79.5223,341.0117,-0.00029637,-0.00042085,0.0,0 STARLINK-3812,1 52346U 22045R   22141.25001157 -.00042085  00000-0 -29637-3 0  9995,2 52346  53.2145 330.5372 0000811  79.5223 341.0117 15.73245818  5919,6727.765,91.531,350.175,349.084,0.0
52346.0,STARLINK-3812,PAYLOAD,2022-05-21 14:00:01,15.73245272,0.0001009,53.2146,328.8874,86.4196,63.128,-0.00033822,-0.00047907,0.0,0 STARLINK-3812,1 52346U 22045R   22141.58335648 -.00047907  00000-0 -33822-3 0  9995,2 52346  53.2146 328.8874 0001009  86.4196  63.1280 15.73245272  1309,6727.766,91.531,350.31,348.952,0.0
52346.0,STARLINK-3812,PAYLOAD,2022-05-21 22:00:00,15.73170877,0.0001028,53.2146,327.2399,67.4271,171.0354,0.00040277,0.00056214,0.0,0 STARLINK-3812,1 52346U 22045R   22141.91667824  .00056214  00000-0  40277-3 0  9997,2 52346  53.2146 327.2399 0001028  67.4271 171.0354 15.73170877  1307,6727.978,91.535,350.535,349.152,0.0
52346.0,STARLINK-3812,PAYLOAD,2022-05-22 06:00:00,15.73227392,9.69e-05,53.2147,325.5885,75.7995,251.5709,-0.00029689,-0.00042125,0.0,0 STARLINK-3812,1 52346U 22045R   22142.25001157 -.00042125  00000-0 -29689-3 0  9998,2 52346  53.2147 325.5885 0000969  75.7995 251.5709 15.73227392  6068,6727.816999999999,91.532,350.334,349.03,0.0
52346.0,STARLINK-3812,PAYLOAD,2022-05-22 14:00:01,15.73184022,0.0001221,53.215,323.9388,79.7723,336.5162,-0.00018223,-0.00026097,0.0,0 STARLINK-3812,1 52346U 22045R   22142.58334491 -.00026097  00000-0 -18223-3 0  9996,2 52346  53.2150 323.9388 0001221  79.7723 336.5162 15.73184022  1308,6727.941,91.534,350.62699999999984,348.9840000000001,0.0
52346.0,STARLINK-3812,PAYLOAD,2022-05-22 22:00:01,15.73171131,0.0001222,53.2147,322.2911,64.013,81.2618,0.00019157,0.00026317,0.0,0 STARLINK-3812,1 52346U 22045R   22142.91668981  .00026317  00000-0  19157-3 0  9997,2 52346  53.2147 322.2911 0001222  64.0130  81.2618 15.73171131  1305,6727.977,91.535,350.665,349.02,0.0
52346.0,STARLINK-3812,PAYLOAD,2022-05-23 04:00:00,15.73170049,0.0001051,53.2142,321.0527,66.1943,55.687,0.00033915,0.00047184,0.0,0 STARLINK-3812,1 52346U 22045R   22143.16667824  .00047184  00000-0  33915-3 0  9993,2 52346  53.2142 321.0527 0001051  66.1943  55.6870 15.73170049  6212,6727.981,91.535,350.55300000000005,349.13800000000015,0.0
52346.0,STARLINK-3812,PAYLOAD,2022-05-23 14:00:01,15.73266844,0.0001041,53.2144,318.9906,72.1813,250.8253,-0.00062622,-0.00087841,0.0,0 STARLINK-3812,1 52346U 22045R   22143.58334491 -.00087841  00000-0 -62622-3 0  9993,2 52346  53.2144 318.9906 0001041  72.1813 250.8253 15.73266844  1300,6727.705,91.529,350.27,348.869,0.0
52346.0,STARLINK-3812,PAYLOAD,2022-05-23 22:00:01,15.73170015,0.0001146,53.2141,317.3427,58.4775,353.5631,0.0001685,0.00023063,0.0,0 STARLINK-3812,1 52346U 22045R   22143.91668981  .00023063  00000-0  16850-3 0  9990,2 52346  53.2141 317.3427 0001146  58.4775 353.5631 15.73170015  6331,6727.981,91.535,350.617,349.075,0.0
52346.0,STARLINK-3812,PAYLOAD,2022-05-24 04:00:00,15.7317736,0.0001068,53.2141,316.1041,62.6144,326.0268,-0.00016261,-0.00023355,0.0,0 STARLINK-3812,1 52346U 22045R   22144.16667824 -.00023355  00000-0 -16261-3 0  9995,2 52346  53.2141 316.1041 0001068  62.6144 326.0268 15.73177360  6364,6727.96,91.534,350.543,349.106,0.0
52346.0,STARLINK-3812,PAYLOAD,2022-05-24 14:00:01,15.73205363,0.000144,53.2177,314.0396,68.3909,161.2582,-1.1445999999999997e-05,-2.227e-05,0.0,0 STARLINK-3812,1 52346U 22045R   22144.58334491 -.00002227  00000-0 -11446-4 0  9998,2 52346  53.2177 314.0396 0001440  68.3909 161.2582 15.73205363  6430,6727.88,91.533,350.714,348.776,0.0
52346.0,STARLINK-3812,PAYLOAD,2022-05-24 22:00:00,15.73197538,0.0001452,53.2141,312.3937,55.7919,263.0266,0.00027697,0.00038425,0.0,0 STARLINK-3812,1 52346U 22045R   22144.91667824  .00038425  00000-0  27697-3 0  9995,2 52346  53.2141 312.3937 0001452  55.7919 263.0266 15.73197538  6486,6727.901999999999,91.533,350.744,348.79,0.0
52346.0,STARLINK-3812,PAYLOAD,2022-05-25 12:00:00,15.73253574,0.0001248,53.214,309.5048,63.9299,320.5368,-0.00065141,-0.00091263,0.0,0 STARLINK-3812,1 52346U 22045R   22145.50001157 -.00091263  00000-0 -65141-3 0  9999,2 52346  53.2140 309.5048 0001248  63.9299 320.5368 15.73253574  6576,6727.7419999999975,91.53,350.44699999999995,348.76800000000014,0.0
52346.0,STARLINK-3812,PAYLOAD,2022-05-25 14:00:01,15.732371100000002,0.0001266,53.214,309.093,59.7868,76.9258,-0.00062801,-0.0008798,0.0,0 STARLINK-3812,1 52346U 22045R   22145.58334491 -.00087980  00000-0 -62801-3 0  9998,2 52346  53.2140 309.0930 0001266  59.7868  76.9258 15.73237110  1300,6727.7890000000025,91.531,350.506,348.80300000000005,0.0
